{
  "type": "FeatureCollection",
  "features": [
    {
      "type": "Feature",
      "properties": {
        "norad_id": 47040,
        "name": "FENGYUN 1C DEB",
        "group": "fengyun-1c-debris",
        "lat": 76.19153191170348,
        "lon": -159.05248855009575,
        "alt_km": 908.0226785565383,
        "timestamp": "2025-12-08T10:52:03.238382+00:00",
        "meta_object_name": "FENGYUN 1C DEB",
        "meta_object_id": "1999-025FBS",
        "meta_epoch": "2025-12-03T10:58:10.539552",
        "meta_mean_motion": 14.06462065,
        "meta_eccentricity": 0.0063058,
        "meta_inclination": 100.2943,
        "meta_ra_of_asc_node": 242.958,
        "meta_arg_of_pericenter": 257.8027,
        "meta_mean_anomaly": 101.6069,
        "meta_ephemeris_type": 0,
        "meta_classification_type": "U",
        "meta_norad_cat_id": 47040,
        "meta_element_set_no": 999,
        "meta_rev_at_epoch": 88978,
        "meta_bstar": 0.0008721929,
        "meta_mean_motion_dot": 1.412e-05,
        "meta_mean_motion_ddot": 0,
        "tle_line1": "1 47040U 99025FBS 25337.45706643  .00001412  00000+0  87219-3 0  9992",
        "tle_line2": "2 47040 100.2943 242.9580 0063058 257.8027 101.6069 14.06462065889786"
      },
      "geometry": {
        "type": "Point",
        "coordinates": [
          -159.05248855009575,
          76.19153191170348
        ]
      }
    },
    {
      "type": "Feature",
      "properties": {
        "norad_id": 47041,
        "name": "FENGYUN 1C DEB",
        "group": "fengyun-1c-debris",
        "lat": -70.8494313126313,
        "lon": 163.94689824838372,
        "alt_km": 547.15172758467,
        "timestamp": "2025-12-08T10:52:03.238392+00:00",
        "meta_object_name": "FENGYUN 1C DEB",
        "meta_object_id": "1999-025FBT",
        "meta_epoch": "2025-12-07T20:12:54.184320",
        "meta_mean_motion": 15.06749619,
        "meta_eccentricity": 0.00145467,
        "meta_inclination": 98.256,
        "meta_ra_of_asc_node": 8.0086,
        "meta_arg_of_pericenter": 201.7227,
        "meta_mean_anomaly": 341.0927,
        "meta_ephemeris_type": 0,
        "meta_classification_type": "U",
        "meta_norad_cat_id": 47041,
        "meta_element_set_no": 999,
        "meta_rev_at_epoch": 71115,
        "meta_bstar": 0.0034546062,
        "meta_mean_motion_dot": 0.0005177,
        "meta_mean_motion_ddot": 0,
        "tle_line1": "1 47041U 99025FBT 25341.84229380  .00051770  00000+0  34546-2 0  9995",
        "tle_line2": "2 47041  98.2560   8.0086 0014546 201.7227 341.0927 15.06749619711150"
      },
      "geometry": {
        "type": "Point",
        "coordinates": [
          163.94689824838372,
          -70.8494313126313
        ]
      }
    },
    {
      "type": "Feature",
      "properties": {
        "norad_id": 47042,
        "name": "FENGYUN 1C DEB",
        "group": "fengyun-1c-debris",
        "lat": 36.82087217767432,
        "lon": 66.67806873167679,
        "alt_km": 817.1417758104662,
        "timestamp": "2025-12-08T10:52:03.238402+00:00",
        "meta_object_name": "FENGYUN 1C DEB",
        "meta_object_id": "1999-025FBU",
        "meta_epoch": "2025-12-02T22:50:44.179872",
        "meta_mean_motion": 14.22815893,
        "meta_eccentricity": 0.00555195,
        "meta_inclination": 99.0007,
        "meta_ra_of_asc_node": 234.2444,
        "meta_arg_of_pericenter": 62.265,
        "meta_mean_anomaly": 358.9067,
        "meta_ephemeris_type": 0,
        "meta_classification_type": "U",
        "meta_norad_cat_id": 47042,
        "meta_element_set_no": 999,
        "meta_rev_at_epoch": 62382,
        "meta_bstar": 0.00035803178,
        "meta_mean_motion_dot": 7.7e-06,
        "meta_mean_motion_ddot": 0,
        "tle_line1": "1 47042U 99025FBU 25336.95190023  .00000770  00000+0  35803-3 0  9995",
        "tle_line2": "2 47042  99.0007 234.2444 0055519  62.2650 358.9067 14.22815893623825"
      },
      "geometry": {
        "type": "Point",
        "coordinates": [
          66.67806873167679,
          36.82087217767432
        ]
      }
    },
    {
      "type": "Feature",
      "properties": {
        "norad_id": 47100,
        "name": "FENGYUN 1C DEB",
        "group": "fengyun-1c-debris",
        "lat": -8.289388212399308,
        "lon": -19.65961464243134,
        "alt_km": 788.6997140806861,
        "timestamp": "2025-12-08T10:52:03.238412+00:00",
        "meta_object_name": "FENGYUN 1C DEB",
        "meta_object_id": "1999-025FBY",
        "meta_epoch": "2025-12-07T10:50:19.383936",
        "meta_mean_motion": 14.51306872,
        "meta_eccentricity": 0.00893911,
        "meta_inclination": 99.0207,
        "meta_ra_of_asc_node": 160.5931,
        "meta_arg_of_pericenter": 9.5171,
        "meta_mean_anomaly": 350.769,
        "meta_ephemeris_type": 0,
        "meta_classification_type": "U",
        "meta_norad_cat_id": 47100,
        "meta_element_set_no": 999,
        "meta_rev_at_epoch": 26691,
        "meta_bstar": 0.0027984143,
        "meta_mean_motion_dot": 0.00011696,
        "meta_mean_motion_ddot": 0,
        "tle_line1": "1 47100U 99025FBY 25341.45161324  .00011696  00000+0  27984-2 0  9992",
        "tle_line2": "2 47100  99.0207 160.5931 0089391   9.5171 350.7690 14.51306872266910"
      },
      "geometry": {
        "type": "Point",
        "coordinates": [
          -19.65961464243134,
          -8.289388212399308
        ]
      }
    },
    {
      "type": "Feature",
      "properties": {
        "norad_id": 47104,
        "name": "FENGYUN 1C DEB",
        "group": "fengyun-1c-debris",
        "lat": -71.06820845738969,
        "lon": 164.7666970753441,
        "alt_km": 837.7037810721558,
        "timestamp": "2025-12-08T10:52:03.238422+00:00",
        "meta_object_name": "FENGYUN 1C DEB",
        "meta_object_id": "1999-025FCC",
        "meta_epoch": "2025-12-05T07:14:15.762912",
        "meta_mean_motion": 14.19416271,
        "meta_eccentricity": 0.00406545,
        "meta_inclination": 98.9092,
        "meta_ra_of_asc_node": 8.8127,
        "meta_arg_of_pericenter": 358.5803,
        "meta_mean_anomaly": 1.5251,
        "meta_ephemeris_type": 0,
        "meta_classification_type": "U",
        "meta_norad_cat_id": 47104,
        "meta_element_set_no": 999,
        "meta_rev_at_epoch": 62267,
        "meta_bstar": 0.00037828604,
        "meta_mean_motion_dot": 7.57e-06,
        "meta_mean_motion_ddot": 0,
        "tle_line1": "1 47104U 99025FCC 25339.30157133  .00000757  00000+0  37829-3 0  9996",
        "tle_line2": "2 47104  98.9092   8.8127 0040654 358.5803   1.5251 14.19416271622675"
      },
      "geometry": {
        "type": "Point",
        "coordinates": [
          164.7666970753441,
          -71.06820845738969
        ]
      }
    }
  ]
}